{"type": "FeatureCollection", "features": [ {"type": "Feature", "properties": {"norad_id": 35891, "name": "COSMOS 2251 DEB", "group": "cosmos-2251-debris", "lat": -35.48182798672676, "lon": -104.88361464939733, "alt_km": 442.96056959810085, "timestamp": "2025-12-26T23:26:42.520354+00:00", "meta": {"OBJECT_NAME": "COSMOS 2251 DEB", "OBJECT_ID": "1993-036AUE", "EPOCH": "2025-12-24T11:02:21.554880", "MEAN_MOTION": 15.34278656, "ECCENTRICITY": 0.00414162, "INCLINATION": 73.9889, "RA_OF_ASC_NODE": 68.7111, "ARG_OF_PERICENTER": 197.0192, "MEAN_ANOMALY": 162.9627, "EPHEMERIS_TYPE": 0, "CLASSIFICATION_TYPE": "U", "NORAD_CAT_ID": 35891, "ELEMENT_SET_NO": 999, "REV_AT_EPOCH": 67400, "BSTAR": 0.0013301522, "MEAN_MOTION_DOT": 0.00045622, "MEAN_MOTION_DDOT": 0}, "tle": {"line1": "1 35891U 93036AUE 25358.45997170  .00045622  00000+0  13302-2 0  9991", "line2": "2 35891  73.9889  68.7111 0041416 197.0192 162.9627 15.34278656674008"}}, "geometry": {"type": "Point", "coordinates": [-104.88361464939733, -35.48182798672676]}}, {"type": "Feature", "properties": {"norad_id": 35895, "name": "COSMOS 2251 DEB", "group": "cosmos-2251-debris", "lat": -52.830350448719884, "lon": 165.12894031250124, "alt_km": 1039.0283974332187, "timestamp": "2025-12-26T23:26:42.520363+00:00", "meta": {"OBJECT_NAME": "COSMOS 2251 DEB", "OBJECT_ID": "1993-036AUJ", "EPOCH": "2025-12-22T15:33:07.695936", "MEAN_MOTION": 14.01570651, "ECCENTRICITY": 0.01984376, "INCLINATION": 74.0474, "RA_OF_ASC_NODE": 330.4733, "ARG_OF_PERICENTER": 66.0465, "MEAN_ANOMALY": 296.1309, "EPHEMERIS_TYPE": 0, "CLASSIFICATION_TYPE": "U", "NORAD_CAT_ID": 35895, "ELEMENT_SET_NO": 999, "REV_AT_EPOCH": 59151, "BSTAR": 0.0014393062, "MEAN_MOTION_DOT": 2.565e-05, "MEAN_MOTION_DDOT": 0}, "tle": {"line1": "1 35895U 93036AUJ 25356.64800574  .00002565  00000+0  14393-2 0  9995", "line2": "2 35895  74.0474 330.4733 0198437  66.0465 296.1309 14.01570651591511"}}, "geometry": {"type": "Point", "coordinates": [165.12894031250124, -52.830350448719884]}}, {"type": "Feature", "properties": {"norad_id": 35898, "name": "COSMOS 2251 DEB", "group": "cosmos-2251-debris", "lat": -16.32299232942396, "lon": 93.49335763128343, "alt_km": 634.1481492362063, "timestamp": "2025-12-26T23:26:42.520372+00:00", "meta": {"OBJECT_NAME": "COSMOS 2251 DEB", "OBJECT_ID": "1993-036AUM", "EPOCH": "2025-12-26T12:06:31.303008", "MEAN_MOTION": 14.94935336, "ECCENTRICITY": 0.0079357, "INCLINATION": 73.9908, "RA_OF_ASC_NODE": 269.6248, "ARG_OF_PERICENTER": 49.2962, "MEAN_ANOMALY": 126.094, "EPHEMERIS_TYPE": 0, "CLASSIFICATION_TYPE": "U", "NORAD_CAT_ID": 35898, "ELEMENT_SET_NO": 999, "REV_AT_EPOCH": 67015, "BSTAR": 0.00072114, "MEAN_MOTION_DOT": 8.353e-05, "MEAN_MOTION_DDOT": 0}, "tle": {"line1": "1 35898U 93036AUM 25360.50452897  .00008353  00000+0  72114-3 0  9996", "line2": "2 35898  73.9908 269.6248 0079357  49.2962 126.0940 14.94935336670159"}}, "geometry": {"type": "Point", "coordinates": [93.49335763128343, -16.32299232942396]}}, {"type": "Feature", "properties": {"norad_id": 35901, "name": "COSMOS 2251 DEB", "group": "cosmos-2251-debris", "lat": 39.9600649088801, "lon": 159.64497736347644, "alt_km": 543.3198196154144, "timestamp": "2025-12-26T23:26:42.520382+00:00", "meta": {"OBJECT_NAME": "COSMOS 2251 DEB", "OBJECT_ID": "1993-036AUQ", "EPOCH": "2025-12-21T07:33:55.014048", "MEAN_MOTION": 15.07789315, "ECCENTRICITY": 0.0007598, "INCLINATION": 74.0113, "RA_OF_ASC_NODE": 5.2093, "ARG_OF_PERICENTER": 337.8636, "MEAN_ANOMALY": 36.6976, "EPHEMERIS_TYPE": 0, "CLASSIFICATION_TYPE": "U", "NORAD_CAT_ID": 35901, "ELEMENT_SET_NO": 999, "REV_AT_EPOCH": 86256, "BSTAR": 0.0027352, "MEAN_MOTION_DOT": 0.00042089, "MEAN_MOTION_DDOT": 0}, "tle": {"line1": "1 35901U 93036AUQ 25355.31522007  .00042089  00000+0  27352-2 0  9992", "line2": "2 35901  74.0113   5.2093 0007598 337.8636  36.6976 15.07789315862560"}}, "geometry": {"type": "Point", "coordinates": [159.64497736347644, 39.9600649088801]}}, {"type": "Feature", "properties": {"norad_id": 35902, "name": "COSMOS 2251 DEB", "group": "cosmos-2251-debris", "lat": -63.98350851943934, "lon": 64.7979947452709, "alt_km": 784.6455470134579, "timestamp": "2025-12-26T23:26:42.520390+00:00", "meta": {"OBJECT_NAME": "COSMOS 2251 DEB", "OBJECT_ID": "1993-036AUR", "EPOCH": "2025-12-22T20:41:03.846048", "MEAN_MOTION": 14.26951694, "ECCENTRICITY": 0.0102351, "INCLINATION": 73.9816, "RA_OF_ASC_NODE": 216.2092, "ARG_OF_PERICENTER": 329.0141, "MEAN_ANOMALY": 30.4992, "EPHEMERIS_TYPE": 0, "CLASSIFICATION_TYPE": "U", "NORAD_CAT_ID": 35902, "ELEMENT_SET_NO": 999, "REV_AT_EPOCH": 61274, "BSTAR": 0.0010058, "MEAN_MOTION_DOT": 2.559e-05, "MEAN_MOTION_DDOT": 0}, "tle": {"line1": "1 35902U 93036AUR 25356.86185007  .00002559  00000+0  10058-2 0  9992", "line2": "2 35902  73.9816 216.2092 0102351 329.0141  30.4992 14.26951694612743"}}, "geometry": {"type": "Point", "coordinates": [64.7979947452709, -63.98350851943934]}}, {"type": "Feature", "properties": {"norad_id": 35905, "name": "COSMOS 2251 DEB", "group": "cosmos-2251-debris", "lat": -56.97993510648556, "lon": 155.7616616459606, "alt_km": 528.1502446900249, "timestamp": "2025-12-26T23:26:42.520399+00:00", "meta": {"OBJECT_NAME": "COSMOS 2251 DEB", "OBJECT_ID": "1993-036AUU", "EPOCH": "2025-12-26T06:05:49.536384", "MEAN_MOTION": 14.99199654, "ECCENTRICITY": 0.0090469, "INCLINATION": 74.0306, "RA_OF_ASC_NODE": 183.3726, "ARG_OF_PERICENTER": 260.3473, "MEAN_ANOMALY": 98.7485, "EPHEMERIS_TYPE": 0, "CLASSIFICATION_TYPE": "U", "NORAD_CAT_ID": 35905, "ELEMENT_SET_NO": 999, "REV_AT_EPOCH": 88785, "BSTAR": 0.00060081, "MEAN_MOTION_DOT": 7.938e-05, "MEAN_MOTION_DDOT": 0}, "tle": {"line1": "1 35905U 93036AUU 25360.25404556  .00007938  00000+0  60081-3 0  9994", "line2": "2 35905  74.0306 183.3726 0090469 260.3473  98.7485 14.99199654887851"}}, "geometry": {"type": "Point", "coordinates": [155.7616616459606, -56.97993510648556]}}, {"type": "Feature", "properties": {"norad_id": 35959, "name": "COSMOS 2251 DEB", "group": "cosmos-2251-debris", "lat": -15.89982520725246, "lon": -78.67534441008348, "alt_km": 767.4270064328157, "timestamp": "2025-12-26T23:26:42.520408+00:00", "meta": {"OBJECT_NAME": "COSMOS 2251 DEB", "OBJECT_ID": "1993-036AUZ", "EPOCH": "2025-12-24T06:13:49.219680", "MEAN_MOTION": 14.34143688, "ECCENTRICITY": 0.00220445, "INCLINATION": 74.0332, "RA_OF_ASC_NODE": 290.9748, "ARG_OF_PERICENTER": 8.3325, "MEAN_ANOMALY": 351.8188, "EPHEMERIS_TYPE": 0, "CLASSIFICATION_TYPE": "U", "NORAD_CAT_ID": 35959, "ELEMENT_SET_NO": 999, "REV_AT_EPOCH": 85093, "BSTAR": 0.00012200296, "MEAN_MOTION_DOT": 3.16e-06, "MEAN_MOTION_DDOT": 0}, "tle": {"line1": "1 35959U 93036AUZ 25358.25959745  .00000316  00000+0  12200-3 0  9998", "line2": "2 35959  74.0332 290.9748 0022044   8.3325 351.8188 14.34143688850935"}}, "geometry": {"type": "Point", "coordinates": [-78.67534441008348, -15.89982520725246]}}, {"type": "Feature", "properties": {"norad_id": 35961, "name": "COSMOS 2251 DEB", "group": "cosmos-2251-debris", "lat": -61.65596305474634, "lon": 31.451032430141346, "alt_km": 981.8155305439168, "timestamp": "2025-12-26T23:26:42.520417+00:00", "meta": {"OBJECT_NAME": "COSMOS 2251 DEB", "OBJECT_ID": "1993-036AVB", "EPOCH": "2025-12-23T19:07:42.767328", "MEAN_MOTION": 14.05444821, "ECCENTRICITY": 0.01917264, "INCLINATION": 73.9256, "RA_OF_ASC_NODE": 184.7319, "ARG_OF_PERICENTER": 115.7574, "MEAN_ANOMALY": 246.3488, "EPHEMERIS_TYPE": 0, "CLASSIFICATION_TYPE": "U", "NORAD_CAT_ID": 35961, "ELEMENT_SET_NO": 999, "REV_AT_EPOCH": 62837, "BSTAR": 0.0013269491, "MEAN_MOTION_DOT": 2.518e-05, "MEAN_MOTION_DDOT": 0}, "tle": {"line1": "1 35961U 93036AVB 25357.79702277  .00002518  00000+0  13269-2 0  9996", "line2": "2 35961  73.9256 184.7319 0191726 115.7574 246.3488 14.05444821628371"}}, "geometry": {"type": "Point", "coordinates": [31.451032430141346, -61.65596305474634]}}, {"type": "Feature", "properties": {"norad_id": 35979, "name": "COSMOS 2251 DEB", "group": "cosmos-2251-debris", "lat": 72.23586621710177, "lon": -85.94082188973492, "alt_km": 647.5444033575941, "timestamp": "2025-12-26T23:26:42.520426+00:00", "meta": {"OBJECT_NAME": "COSMOS 2251 DEB", "OBJECT_ID": "1993-036AVV", "EPOCH": "2025-12-22T21:28:01.748352", "MEAN_MOTION": 14.74747539, "ECCENTRICITY": 0.0059307, "INCLINATION": 74.008, "RA_OF_ASC_NODE": 218.5159, "ARG_OF_PERICENTER": 348.3492, "MEAN_ANOMALY": 27.9615, "EPHEMERIS_TYPE": 0, "CLASSIFICATION_TYPE": "U", "NORAD_CAT_ID": 35979, "ELEMENT_SET_NO": 999, "REV_AT_EPOCH": 88783, "BSTAR": 0.00076773, "MEAN_MOTION_DOT": 5.251e-05, "MEAN_MOTION_DDOT": 0}, "tle": {"line1": "1 35979U 93036AVV 25356.89446468  .00005251  00000+0  76773-3 0  9999", "line2": "2 35979  74.0080 218.5159 0059307 348.3492  27.9615 14.74747539887837"}}, "geometry": {"type": "Point", "coordinates": [-85.94082188973492, 72.23586621710177]}}, {"type": "Feature", "properties": {"norad_id": 35980, "name": "COSMOS 2251 DEB", "group": "cosmos-2251-debris", "lat": -68.67428493505393, "lon": -36.99784123039996, "alt_km": 667.9855353554613, "timestamp": "2025-12-26T23:26:42.520434+00:00", "meta": {"OBJECT_NAME": "COSMOS 2251 DEB", "OBJECT_ID": "1993-036AVW", "EPOCH": "2025-12-25T13:22:27.353856", "MEAN_MOTION": 14.59476627, "ECCENTRICITY": 0.0053822, "INCLINATION": 73.912, "RA_OF_ASC_NODE": 98.0618, "ARG_OF_PERICENTER": 231.0081, "MEAN_ANOMALY": 128.6285, "EPHEMERIS_TYPE": 0, "CLASSIFICATION_TYPE": "U", "NORAD_CAT_ID": 35980, "ELEMENT_SET_NO": 999, "REV_AT_EPOCH": 61673, "BSTAR": 0.0016517, "MEAN_MOTION_DOT": 7.974e-05, "MEAN_MOTION_DDOT": 0}, "tle": {"line1": "1 35980U 93036AVW 25359.55726104  .00007974  00000+0  16517-2 0  9998", "line2": "2 35980  73.9120  98.0618 0053822 231.0081 128.6285 14.59476627616732"}}, "geometry": {"type": "Point", "coordinates": [-36.99784123039996, -68.67428493505393]}}]}